*******************************************************************************
Ephemeris / WWW_USER Mon Mar 10 07:13:52 2025 Pasadena, USA      / Horizons    
*******************************************************************************
Target body name: (2018 OG)                       {source: JPL#12}
Center body name: Earth (399)                     {source: DE441}
Center-site name: Mauna Kea
*******************************************************************************
Start time      : A.D. 2018-Oct-15 04:08:00.0000 UT      
Stop  time      : A.D. 2018-Oct-15 16:07:00.0000 UT      
Step-size       : 1 minutes
*******************************************************************************
Target pole/equ : undefined
Target radii    : undefined                                                    
Center geodetic : 204.5278, 19.8260847, 4.21024   {E-lon(deg),Lat(deg),Alt(km)}
Center cylindric: 204.5278, 6006.35451, 2151.0229 {E-lon(deg),Dxy(km),Dz(km)}
Center pole/equ : ITRF93                          {East-longitude positive}
Center radii    : 6378.137, 6378.137, 6356.752 km {Equator_a, b, pole_c}       
Target primary  : Sun
Vis. interferer : MOON (R_eq= 1737.400) km        {source: DE441}
Rel. light bend : Sun                             {source: DE441}
Rel. lght bnd GM: 1.3271E+11 km^3/s^2                                          
Small-body perts: Yes                             {source: SB441-N16}
Atmos refraction: NO (AIRLESS)
RA format       : HMS
Time format     : CAL 
Calendar mode   : Mixed Julian/Gregorian
RTS-only print  : NO       
EOP file        : eop.250307.p250603                                           
EOP coverage    : DATA-BASED 1962-JAN-20 TO 2025-MAR-07. PREDICTS-> 2025-JUN-02
Units conversion: 1 au= 149597870.700 km, c= 299792.458 km/s, 1 day= 86400.0 s 
Table cut-offs 1: Elevation (-90.0deg=NO ),Airmass (>38.000=NO), Daylight (YES)
Table cut-offs 2: Solar elongation (  0.0,180.0=NO ),Local Hour Angle( 0.0=NO )
Table cut-offs 3: RA/DEC angular rate (     0.0=NO )                           
*******************************************************************************
Initial IAU76/J2000 heliocentric ecliptic osculating elements (au, days, deg.):
  EPOCH=  2458389.5 ! 2018-Sep-28.00 (TDB)         Residual RMS= .17662        
   EC= .5817218672922059   QR= .9873203561553971   TP= 2458366.942240702       
   OM= 131.0345430575832   W=  220.7633135105564   IN= 9.123860581277821       
  Equivalent ICRF heliocentric cartesian coordinates (au, au/d):
   X= 9.625437195102586E-01  Y= 3.686106454146055E-01  Z=-5.877845729655690E-03
  VX=-3.555418036941177E-03 VY= 1.979451357965206E-02 VZ= 6.659913004156397E-03
Asteroid physical parameters (km, seconds, rotational period in hours):        
   GM= n.a.                RAD= n.a.               ROTPER= n.a.                
   H= 23.6                 G= .150                 B-V= n.a.                   
                           ALBEDO= n.a.            STYP= n.a.                  
*******************************************************************************
 Date__(UT)__HR:MN     R.A._________(ICRF)_________DEC
******************************************************
$$SOE
 2018-Oct-15 12:20     06 39 09.701832 -06 00 06.81638
 2018-Oct-15 12:21     06 39 09.704140 -06 00 06.65090
 2018-Oct-15 12:22     06 39 09.706425 -06 00 06.48538
 2018-Oct-15 12:23     06 39 09.708688 -06 00 06.31983
 2018-Oct-15 12:24     06 39 09.710928 -06 00 06.15425
 2018-Oct-15 12:25     06 39 09.713146 -06 00 05.98864
 2018-Oct-15 12:26     06 39 09.715341 -06 00 05.82299
 2018-Oct-15 12:27     06 39 09.717514 -06 00 05.65730
 2018-Oct-15 12:28     06 39 09.719666 -06 00 05.49159
 2018-Oct-15 12:29     06 39 09.721795 -06 00 05.32583
 2018-Oct-15 12:30     06 39 09.723902 -06 00 05.16005
 2018-Oct-15 12:31     06 39 09.725987 -06 00 04.99423
 2018-Oct-15 12:32     06 39 09.728051 -06 00 04.82837
 2018-Oct-15 12:33     06 39 09.730093 -06 00 04.66248
 2018-Oct-15 12:34     06 39 09.732113 -06 00 04.49655
 2018-Oct-15 12:35     06 39 09.734112 -06 00 04.33059
 2018-Oct-15 12:36     06 39 09.736090 -06 00 04.16460
 2018-Oct-15 12:37     06 39 09.738046 -06 00 03.99857
 2018-Oct-15 12:38     06 39 09.739981 -06 00 03.83250
 2018-Oct-15 12:39     06 39 09.741895 -06 00 03.66640
 2018-Oct-15 12:40     06 39 09.743788 -06 00 03.50026
 2018-Oct-15 12:41     06 39 09.745660 -06 00 03.33408
 2018-Oct-15 12:42     06 39 09.747511 -06 00 03.16787
 2018-Oct-15 12:43     06 39 09.749342 -06 00 03.00163
 2018-Oct-15 12:44     06 39 09.751152 -06 00 02.83534
 2018-Oct-15 12:45     06 39 09.752941 -06 00 02.66902
 2018-Oct-15 12:46     06 39 09.754710 -06 00 02.50267
 2018-Oct-15 12:47     06 39 09.756459 -06 00 02.33627
 2018-Oct-15 12:48     06 39 09.758187 -06 00 02.16984
 2018-Oct-15 12:49     06 39 09.759895 -06 00 02.00338
 2018-Oct-15 12:50     06 39 09.761584 -06 00 01.83687
 2018-Oct-15 12:51     06 39 09.763252 -06 00 01.67033
 2018-Oct-15 12:52     06 39 09.764901 -06 00 01.50375
 2018-Oct-15 12:53     06 39 09.766530 -06 00 01.33714
 2018-Oct-15 12:54     06 39 09.768139 -06 00 01.17048
 2018-Oct-15 12:55     06 39 09.769729 -06 00 01.00379
 2018-Oct-15 12:56     06 39 09.771299 -06 00 00.83706
 2018-Oct-15 12:57     06 39 09.772850 -06 00 00.67029
 2018-Oct-15 12:58     06 39 09.774382 -06 00 00.50349
 2018-Oct-15 12:59     06 39 09.775894 -06 00 00.33664
 2018-Oct-15 13:00     06 39 09.777388 -06 00 00.16976
 2018-Oct-15 13:01     06 39 09.778863 -06 00 00.00284
 2018-Oct-15 13:02     06 39 09.780319 -05 59 59.83588
 2018-Oct-15 13:03     06 39 09.781756 -05 59 59.66888
 2018-Oct-15 13:04     06 39 09.783175 -05 59 59.50185
 2018-Oct-15 13:05     06 39 09.784575 -05 59 59.33477
 2018-Oct-15 13:06     06 39 09.785957 -05 59 59.16766
 2018-Oct-15 13:07     06 39 09.787320 -05 59 59.00050
 2018-Oct-15 13:08     06 39 09.788665 -05 59 58.83331
 2018-Oct-15 13:09     06 39 09.789993 -05 59 58.66608
 2018-Oct-15 13:10     06 39 09.791302 -05 59 58.49880
 2018-Oct-15 13:11     06 39 09.792593 -05 59 58.33149
 2018-Oct-15 13:12     06 39 09.793867 -05 59 58.16414
 2018-Oct-15 13:13     06 39 09.795123 -05 59 57.99675
 2018-Oct-15 13:14     06 39 09.796361 -05 59 57.82931
 2018-Oct-15 13:15     06 39 09.797582 -05 59 57.66184
 2018-Oct-15 13:16     06 39 09.798786 -05 59 57.49433
 2018-Oct-15 13:17     06 39 09.799972 -05 59 57.32678
 2018-Oct-15 13:18     06 39 09.801142 -05 59 57.15918
 2018-Oct-15 13:19     06 39 09.802294 -05 59 56.99155
 2018-Oct-15 13:20     06 39 09.803430 -05 59 56.82388
 2018-Oct-15 13:21     06 39 09.804548 -05 59 56.65616
 2018-Oct-15 13:22     06 39 09.805650 -05 59 56.48841
 2018-Oct-15 13:23     06 39 09.806736 -05 59 56.32061
 2018-Oct-15 13:24     06 39 09.807805 -05 59 56.15277
 2018-Oct-15 13:25     06 39 09.808857 -05 59 55.98489
 2018-Oct-15 13:26     06 39 09.809894 -05 59 55.81697
 2018-Oct-15 13:27     06 39 09.810914 -05 59 55.64901
 2018-Oct-15 13:28     06 39 09.811918 -05 59 55.48101
 2018-Oct-15 13:29     06 39 09.812907 -05 59 55.31296
 2018-Oct-15 13:30     06 39 09.813879 -05 59 55.14488
 2018-Oct-15 13:31     06 39 09.814836 -05 59 54.97675
 2018-Oct-15 13:32     06 39 09.815778 -05 59 54.80858
 2018-Oct-15 13:33     06 39 09.816703 -05 59 54.64036
 2018-Oct-15 13:34     06 39 09.817614 -05 59 54.47211
 2018-Oct-15 13:35     06 39 09.818509 -05 59 54.30381
 2018-Oct-15 13:36     06 39 09.819389 -05 59 54.13548
 2018-Oct-15 13:37     06 39 09.820255 -05 59 53.96709
 2018-Oct-15 13:38     06 39 09.821105 -05 59 53.79867
 2018-Oct-15 13:39     06 39 09.821941 -05 59 53.63021
 2018-Oct-15 13:40     06 39 09.822761 -05 59 53.46170
 2018-Oct-15 13:41     06 39 09.823568 -05 59 53.29315
 2018-Oct-15 13:42     06 39 09.824360 -05 59 53.12455
 2018-Oct-15 13:43     06 39 09.825137 -05 59 52.95591
 2018-Oct-15 13:44     06 39 09.825901 -05 59 52.78723
 2018-Oct-15 13:45     06 39 09.826650 -05 59 52.61851
 2018-Oct-15 13:46     06 39 09.827385 -05 59 52.44974
 2018-Oct-15 13:47     06 39 09.828107 -05 59 52.28093
 2018-Oct-15 13:48     06 39 09.828815 -05 59 52.11208
 2018-Oct-15 13:49     06 39 09.829509 -05 59 51.94318
 2018-Oct-15 13:50     06 39 09.830189 -05 59 51.77425
 2018-Oct-15 13:51     06 39 09.830857 -05 59 51.60526
 2018-Oct-15 13:52     06 39 09.831511 -05 59 51.43623
 2018-Oct-15 13:53     06 39 09.832151 -05 59 51.26716
 2018-Oct-15 13:54     06 39 09.832779 -05 59 51.09805
 2018-Oct-15 13:55     06 39 09.833394 -05 59 50.92889
 2018-Oct-15 13:56     06 39 09.833996 -05 59 50.75969
 2018-Oct-15 13:57     06 39 09.834586 -05 59 50.59044
 2018-Oct-15 13:58     06 39 09.835163 -05 59 50.42115
 2018-Oct-15 13:59     06 39 09.835727 -05 59 50.25181
 2018-Oct-15 14:00     06 39 09.836279 -05 59 50.08243
 2018-Oct-15 14:01     06 39 09.836819 -05 59 49.91301
 2018-Oct-15 14:02     06 39 09.837347 -05 59 49.74354
 2018-Oct-15 14:03     06 39 09.837862 -05 59 49.57403
 2018-Oct-15 14:04     06 39 09.838366 -05 59 49.40447
 2018-Oct-15 14:05     06 39 09.838859 -05 59 49.23487
 2018-Oct-15 14:06     06 39 09.839339 -05 59 49.06522
 2018-Oct-15 14:07     06 39 09.839808 -05 59 48.89553
 2018-Oct-15 14:08     06 39 09.840266 -05 59 48.72579
 2018-Oct-15 14:09     06 39 09.840713 -05 59 48.55601
 2018-Oct-15 14:10     06 39 09.841148 -05 59 48.38619
 2018-Oct-15 14:11     06 39 09.841573 -05 59 48.21632
 2018-Oct-15 14:12     06 39 09.841986 -05 59 48.04640
 2018-Oct-15 14:13     06 39 09.842389 -05 59 47.87644
 2018-Oct-15 14:14     06 39 09.842781 -05 59 47.70643
 2018-Oct-15 14:15     06 39 09.843163 -05 59 47.53638
 2018-Oct-15 14:16     06 39 09.843534 -05 59 47.36628
 2018-Oct-15 14:17     06 39 09.843895 -05 59 47.19613
 2018-Oct-15 14:18     06 39 09.844245 -05 59 47.02595
 2018-Oct-15 14:19     06 39 09.844586 -05 59 46.85571
 2018-Oct-15 14:20     06 39 09.844917 -05 59 46.68543
 2018-Oct-15 14:21     06 39 09.845238 -05 59 46.51510
 2018-Oct-15 14:22     06 39 09.845549 -05 59 46.34473
